OBJECT_NAME,OBJECT_ID,EPOCH,MEAN_MOTION,ECCENTRICITY,INCLINATION,RA_OF_ASC_NODE,ARG_OF_PERICENTER,MEAN_ANOMALY,EPHEMERIS_TYPE,CLASSIFICATION_TYPE,NORAD_CAT_ID,ELEMENT_SET_NO,REV_AT_EPOCH,BSTAR,MEAN_MOTION_DOT,MEAN_MOTION_DDOT
PROPCUBE 1 (FLORA),2015-058N,2026-06-07T20:40:20.272800,14.89178132,0.01303439,64.77590000000001,324.1389,64.5742,296.8792,0,U,40976,999,11487,0.00029617201999999996,3.117e-05,0.0
SINOD-D 3,2015-058P,2026-06-08T03:17:43.690272,14.93957578,0.01188533,64.7736,304.078,61.7349,299.5699,0,U,40977,999,11340,0.0003032366,3.545e-05,0.0
APSTAR-9,2015-059A,2026-06-08T07:12:49.052736,1.00270215,0.00022707,0.015600000000000001,358.4051,182.7335,325.7708,0,U,40982,999,3903,0.0,-2.4999999999999998e-06,0.0
TURKSAT 4B,2015-060A,2026-06-08T03:21:10.024704,1.00268581,0.00024963,0.0175,8.604800000000001,56.1054,292.1353,0,U,40984,999,3900,0.0,1.31e-06,0.0
NAVSTAR 75 (USA 265),2015-062A,2026-06-07T07:20:05.993952,2.00567051,0.01116178,56.9527,31.192,231.1506,127.9002,0,U,41019,999,7763,0.0,-6.599999999999999e-07,0.0
ZHONGXING-2C,2015-063A,2026-06-08T01:53:50.320896,1.00268569,0.00076557,0.24910000000000002,90.3185,95.7307,202.2996,0,U,41021,999,3888,0.0,-3.0799999999999997e-06,0.0
YAOGAN-28,2015-064A,2026-06-08T06:45:43.625952,15.27303262,0.00098284,97.3064,297.7265,215.6751,144.3833,0,U,41026,999,58932,0.00024129778999999998,6.389000000000001e-05,0.0
GSAT-15,2015-065A,2026-06-08T01:50:58.096320,1.00271202,0.00040029999999999997,0.049100000000000005,113.5759,325.2533,298.9001,0,U,41028,999,3870,0.0,-2.4199999999999997e-06,0.0
BADR-7 (ARABSAT-6B),2015-065B,2026-06-08T04:57:00.849312,1.0027046,0.00033229,0.037700000000000004,236.9789,320.8814,158.9846,0,U,41029,999,3867,0.0,1.6e-06,0.0
COSMOS 2510,2015-066A,2026-06-01T00:16:15.328992,2.00948921,0.7203997600000001,63.4962,348.3931,274.6574,13.7,0,U,41032,999,7714,0.0,-1.527e-05,0.0
LAOSAT 1,2015-067A,2026-06-07T17:27:35.368416,1.0026697,0.00020869999999999998,0.0381,195.2428,205.4762,245.7893,0,U,41034,999,3876,0.0,-3.28e-06,0.0
TELSTAR 12V,2015-068A,2026-06-08T06:28:02.492256,1.00271287,0.00023738,0.0183,56.7632,18.3238,263.5968,0,U,41036,999,3853,0.0,-1.0299999999999999e-06,0.0
YAOGAN-29,2015-069A,2026-06-08T06:31:41.193984,14.83076999,0.00029421,98.0031,187.8908,67.5193,292.6332,0,U,41038,999,56930,7.2907319999999995e-06,5e-08,0.0
ELEKTRO-L 2,2015-074A,2026-06-08T01:19:49.413792,1.00272046,0.00011341,6.6705,70.6343,284.8984,266.3917,0,U,41105,999,3841,0.0,-1.0299999999999999e-06,0.0
COSMOS 2513,2015-075A,2026-06-07T08:40:25.028256,1.0027244,0.00036874,0.0781,99.8531,329.6914,36.5844,0,U,41121,999,3845,0.0,-1.24e-06,0.0
VELOX-CI,2015-077A,2026-06-07T15:28:49.073952,15.49484431,0.00044614000000000003,14.981,158.3499,89.8844,270.1993,0,U,41166,999,58124,0.0003460211,0.00020895,0.0
KENT RIDGE 1,2015-077B,2026-06-08T03:01:49.323648,15.23078072,0.0008250800000000001,14.9808,333.3719,110.567,249.5537,0,U,41167,999,57971,0.00015975572,4.648e-05,0.0
DAMPE,2015-078A,2026-06-08T06:40:44.294016,15.30763252,0.00136738,97.4563,164.7021,104.2937,255.9823,0,U,41173,999,58318,5.683859700000001e-05,1.616e-05,0.0
GSAT0209 (GALILEO 12),2015-079A,2026-06-05T07:22:08.047776,1.70473904,0.00054406,55.8207,101.5878,339.2511,20.6937,0,U,41174,999,6457,0.0,1.8999999999999998e-07,0.0
GSAT0208 (GALILEO 11),2015-079B,2026-06-07T06:53:27.744288,1.7047363,0.00047219,55.8199,101.5304,346.6269,13.3344,0,U,41175,999,6502,0.0,2.5e-07,0.0
ORBCOMM FM114,2015-081A,2026-06-07T22:31:04.336896,14.58848089,0.00019415,47.0058,45.7315,168.594,191.4991,0,U,41179,999,55640,0.00015277423,5.51e-06,0.0
ORBCOMM FM110,2015-081D,2026-06-07T09:05:34.560672,14.5886497,0.00029217,47.0029,47.8183,20.916,339.1845,0,U,41182,999,55619,0.00021433251999999998,8.419999999999999e-06,0.0
ORBCOMM FM118,2015-081E,2026-06-05T23:23:50.578944,14.58872006,0.00031663,47.0105,54.7867,344.439,15.6398,0,U,41183,999,55609,0.0007114931499999999,3.194e-05,0.0
ORBCOMM FM112,2015-081F,2026-06-07T16:36:11.603808,14.58890878,0.00031239,47.0001,315.1475,175.6095,184.4819,0,U,41184,999,55756,0.00020932024999999999,8.19e-06,0.0
ORBCOMM FM113,2015-081G,2026-06-08T03:32:28.144608,14.58849184,0.00017384,47.0018,313.3644,188.1874,171.8983,0,U,41185,999,55761,0.00014298569,5.05e-06,0.0
ORBCOMM FM108,2015-081J,2026-06-07T21:42:33.592608,14.58862128,0.00024508,47.0042,226.086,183.9962,176.0905,0,U,41187,999,55872,0.00017663917999999999,6.639999999999999e-06,0.0
ORBCOMM FM117,2015-081K,2026-06-07T20:52:51.913056,14.58857943,0.00029806,47.0005,224.8856,184.7848,175.301,0,U,41188,999,55876,0.00016110195,5.9e-06,0.0
ORBCOMM FM116,2015-081L,2026-06-07T17:07:36.101856,14.588695940000001,0.00011218,47.0035,315.4145,3.5235000000000003,356.5659,0,U,41189,999,55755,0.00021737162999999998,8.57e-06,0.0
EXPRESS-AMU1,2015-082A,2026-06-08T06:42:38.592576,1.00269982,0.00028764000000000003,0.0176,332.1129,106.8624,314.4543,0,U,41191,999,3817,0.0,1.71e-06,0.0
